SatCatId,ObjectName,LaunchYear,OrbitalPeriod,LaunchMass,StatusCode,Inclination,Status,UcsData,OrbitClassEstimated,LaunchSiteCountry,Owner,UseType,Purpose,LaunchVehicleClass,TLE1,TLE2,MeanMotion,Eccentricity,OrbitClass
54765,STARLINK-5466,2022,95.44,260.0,+,53.22,Active,1,LEO,USA,USA,Commercial,Communications,Falcon,1 54765U 22175H   23212.79473018  .00017613  00000+0  11216-2 0  9993,2 54765  53.2167 357.4560 0000680  72.9389 287.1678 15.08851086 34069,15.08851086,6.8e-05,LEO
54766,STARLINK-5471,2022,95.44,260.0,+,53.22,Active,1,LEO,USA,USA,Commercial,Communications,Falcon,1 54766U 22175J   23212.38623629  .00004068  00000+0  27355-3 0  9996,2 54766  53.2182 359.1724 0001173  96.5117 263.6009 15.08840766 33998,15.08840766,0.0001173,LEO
54767,STARLINK-5472,2022,95.44,260.0,+,53.22,Active,1,LEO,USA,USA,Commercial,Communications,Falcon,1 54767U 22175K   23212.77999254  .00000263  00000+0  34592-4 0  9995,2 54767  53.2190 357.3670 0001162  97.5731 262.5393 15.08845353 34058,15.08845353,0.0001162,LEO
54768,STARLINK-5444,2022,95.44,260.0,+,53.22,Active,1,LEO,USA,USA,Commercial,Communications,Falcon,1 54768U 22175L   23212.40420848 -.00001392  00000+0 -69421-4 0  9999,2 54768  53.2182 344.3197 0001016  79.8561 280.2546 15.08835960 34209,15.0883596,0.0001016,LEO
54769,STARLINK-5404,2022,95.44,260.0,+,53.22,Active,1,LEO,USA,USA,Commercial,Communications,Falcon,1 54769U 22175M   23212.72112211  .00000336  00000+0  39168-4 0  9997,2 54769  53.2184 357.7094 0000960  85.3170 274.7931 15.08840822 34042,15.08840822,9.6e-05,LEO
54770,STARLINK-5448,2022,95.44,260.0,+,53.22,Active,1,LEO,USA,USA,Commercial,Communications,Falcon,1 54770U 22175N   23212.40051780 -.00001650  00000+0 -85626-4 0  9999,2 54770  53.2192 344.2951 0001293  96.8152 263.2987 15.08838570 34202,15.0883857,0.0001293,LEO
54771,STARLINK-5451,2022,95.44,260.0,+,53.22,Active,1,LEO,USA,USA,Commercial,Communications,Falcon,1 54771U 22175P   23212.69763243  .00000531  00000+0  51437-4 0  9993,2 54771  53.2185 352.5811 0000864  87.9974 272.1117 15.08844094 34110,15.08844094,8.64e-05,LEO
54772,STARLINK-5452,2022,95.44,260.0,+,53.22,Active,1,LEO,USA,USA,Commercial,Communications,Falcon,1 54772U 22175Q   23212.72803025  .00014783  00000+0  94450-3 0  9996,2 54772  53.2182 342.7854 0000890 106.7605 253.3485 15.08857125 34259,15.08857125,8.9e-05,LEO
54773,STARLINK-5453,2022,95.44,260.0,+,53.22,Active,1,LEO,USA,USA,Commercial,Communications,Falcon,1 54773U 22175R   23212.44142038  .00000517  00000+0  50576-4 0  9998,2 54773  53.2182 358.8062 0000863  83.0383 277.0707 15.08839912 34006,15.08839912,8.63e-05,LEO
54774,STARLINK-5454,2022,95.44,260.0,+,53.22,Active,1,LEO,USA,USA,Commercial,Communications,Falcon,1 54774U 22175S   23212.75004779 -.00000197  00000+0  57171-5 0  9996,2 54774  53.2185 342.2231 0001088  82.8543 277.2573 15.08855988 34262,15.08855988,0.0001088,LEO
54775,STARLINK-5465,2022,95.44,260.0,+,53.22,Active,1,LEO,USA,USA,Commercial,Communications,Falcon,1 54775U 22175T   23212.37149580  .00001306  00000+0  10011-3 0  9997,2 54775  53.2170 359.0814 0000855  79.5390 280.5699 15.08841610 33996,15.0884161,8.55e-05,LEO
54776,STARLINK-5470,2022,95.44,260.0,+,53.22,Active,1,LEO,USA,USA,Commercial,Communications,Falcon,1 54776U 22175U   23212.81306514  .00004014  00000+0  27008-3 0  9992,2 54776  53.2177 356.8693 0001038  80.5465 279.5645 15.08850642 34066,15.08850642,0.0001038,LEO
54777,STARLINK-5468,2022,95.44,260.0,+,53.22,Active,1,LEO,USA,USA,Commercial,Communications,Falcon,1 54777U 22175V   23212.89772209  .00003400  00000+0  23150-3 0  9991,2 54777  53.2183 356.6800 0000945  81.1418 278.9681 15.08856715 34074,15.08856715,9.45e-05,LEO
54778,STARLINK-5450,2022,95.44,260.0,+,53.22,Active,1,LEO,USA,USA,Commercial,Communications,Falcon,1 54778U 22175W   23213.31682375  .00000560  00000+0  53257-4 0  9990,2 54778  53.2194 340.0673 0001007 109.7659 250.3442 15.08831043 34342,15.08831043,0.0001007,LEO
54779,STARLINK-5447,2022,95.44,260.0,+,53.22,Active,1,LEO,USA,USA,Commercial,Communications,Falcon,1 54779U 22175X   23213.32051335  .00000863  00000+0  72297-4 0  9999,2 54779  53.2177 340.0884 0001067 102.3940 257.7172 15.08833082 34342,15.08833082,0.0001067,LEO
54780,STARLINK-5449,2022,95.44,260.0,+,53.22,Active,1,LEO,USA,USA,Commercial,Communications,Falcon,1 54780U 22175Y   23212.63968330  .00021966  00000+0  13935-2 0  9995,2 54780  53.2173 342.9448 0000471  84.0591 276.0455 15.08850662 34243,15.08850662,4.71e-05,LEO
54781,STARLINK-5443,2022,95.44,260.0,+,53.22,Active,1,LEO,USA,USA,Commercial,Communications,Falcon,1 54781U 22175Z   23213.37938449  .00001357  00000+0  10332-3 0  9997,2 54781  53.2169 339.7411 0001064  61.5836 298.5263 15.08835318 34353,15.08835318,0.0001064,LEO
54782,STARLINK-5437,2022,94.9,260.0,+,53.22,Active,1,LEO,USA,USA,Commercial,Communications,Falcon,1 54782U 22175AA  23212.42723977  .00037007  00000+0  18339-2 0  9996,2 54782  53.2209 310.3750 0001923  12.2780 347.8263 15.17431219 34681,15.17431219,0.0001923,LEO
54783,STARLINK-5439,2022,95.44,260.0,+,53.22,Active,1,LEO,USA,USA,Commercial,Communications,Falcon,1 54783U 22175AB  23213.37569552  .00000701  00000+0  62136-4 0  9996,2 54783  53.2187 339.7192 0001088 118.2218 241.8884 15.08836412 34357,15.08836412,0.0001088,LEO
54784,STARLINK-5442,2022,95.44,260.0,+,53.22,Active,1,LEO,USA,USA,Commercial,Communications,Falcon,1 54784U 22175AC  23212.89403558  .00000581  00000+0  54535-4 0  9996,2 54784  53.2188 356.6584 0000972  81.3866 278.7236 15.08856363 34078,15.08856363,9.72e-05,LEO
54785,STARLINK-5440,2022,95.44,260.0,+,53.22,Active,1,LEO,USA,USA,Commercial,Communications,Falcon,1 54785U 22175AD  23213.41343023  .00000046  00000+0  20960-4 0  9997,2 54785  53.2175 299.3329 0001180  91.6391 268.4736 15.08828698 34929,15.08828698,0.000118,LEO
54786,STARLINK-5438,2022,95.44,260.0,+,53.22,Active,1,LEO,USA,USA,Commercial,Communications,Falcon,1 54786U 22175AE  23213.36928341  .00000555  00000+0  52934-4 0  9995,2 54786  53.2180 339.6834 0001037  81.5255 278.5854 15.08840614 34355,15.08840614,0.0001037,LEO
54787,STARLINK-5441,2022,95.44,260.0,+,53.22,Active,1,LEO,USA,USA,Commercial,Communications,Falcon,1 54787U 22175AF  23213.35404450  .00001516  00000+0  11332-3 0  9999,2 54787  53.2188 354.5571 0000858  87.2736 272.8354 15.08839416 34142,15.08839416,8.58e-05,LEO
54788,STARLINK-5399,2022,95.44,260.0,+,53.22,Active,1,LEO,USA,USA,Commercial,Communications,Falcon,1 54788U 22175AG  23213.36464390  .00005168  00000+0  34254-3 0  9995,2 54788  53.2180 339.6610 0001372  46.8270 313.2836 15.08840817 34354,15.08840817,0.0001372,LEO
54789,STARLINK-5446,2022,95.44,260.0,+,53.22,Active,1,LEO,USA,USA,Commercial,Communications,Falcon,1 54789U 22175AH  23213.29793689 -.00001166  00000+0 -55193-4 0  9996,2 54789  53.2179 324.8529 0000952  79.6056 280.5044 15.08833463 34555,15.08833463,9.52e-05,LEO
54790,STARLINK-5445,2022,95.44,260.0,+,53.22,Active,1,LEO,USA,USA,Commercial,Communications,Falcon,1 54790U 22175AJ  23212.76109799  .00000958  00000+0  78209-4 0  9991,2 54790  53.2179 342.2873 0000954  73.0464 287.0632 15.08855979 34265,15.08855979,9.54e-05,LEO
54791,STARLINK-5425,2022,95.44,260.0,+,53.22,Active,1,LEO,USA,USA,Commercial,Communications,Falcon,1 54791U 22175AK  23212.77584058 -.00001606  00000+0 -82828-4 0  9993,2 54791  53.2184 342.3748 0000871  97.3880 262.7211 15.08855791 34268,15.08855791,8.71e-05,LEO
54792,STARLINK-5431,2022,95.44,260.0,+,53.22,Active,1,LEO,USA,USA,Commercial,Communications,Falcon,1 54792U 22175AL  23212.41930727  .00000009  00000+0  18661-4 0  9991,2 54792  53.2182 358.6734 0001134 113.0380 247.0732 15.08842040 34005,15.0884204,0.0001134,LEO
54793,STARLINK-5433,2022,95.44,260.0,+,53.22,Active,1,LEO,USA,USA,Commercial,Communications,Falcon,1 54793U 22175AM  23213.30669933  .00001803  00000+0  13138-3 0  9995,2 54793  53.2179 330.0622 0000880  77.9045 282.2046 15.08833396 34480,15.08833396,8.8e-05,LEO
54794,STARLINK-5392,2022,95.23,260.0,+,53.22,Active,1,LEO,USA,USA,Commercial,Communications,Falcon,1 54794U 22175AN  23213.40505858 -.00000464  00000+0 -96088-5 0  9993,2 54794  53.2197 347.8932 0000526  43.2668 316.8367 15.12103221 34241,15.12103221,5.26e-05,LEO
54795,STARLINK-5436,2022,95.44,260.0,+,53.22,Active,1,LEO,USA,USA,Commercial,Communications,Falcon,1 54795U 22175AP  23212.10239750  .00007233  00000+0  47200-3 0  9994,2 54795  53.2152 345.2818 0001167  61.8002 298.3108 15.08845760 34162,15.0884576,0.0001167,LEO
54796,STARLINK-5415,2022,95.44,260.0,+,53.22,Active,1,LEO,USA,USA,Commercial,Communications,Falcon,1 54796U 22175AQ  23212.75742079  .00002299  00000+0  16242-3 0  9998,2 54796  53.2180 342.2633 0000852  79.3799 280.7289 15.08847149 34262,15.08847149,8.52e-05,LEO
54797,STARLINK-5435,2022,95.44,260.0,+,53.22,Active,1,LEO,USA,USA,Commercial,Communications,Falcon,1 54797U 22175AR  23212.43869599 -.00000589  00000+0 -18900-4 0  9997,2 54797  53.2195 358.7864 0001524  83.3410 276.7755 15.08836133 34005,15.08836133,0.0001524,LEO
54798,STARLINK-5420,2022,95.44,260.0,+,53.22,Active,1,LEO,USA,USA,Commercial,Communications,Falcon,1 54798U 22175AS  23212.62218440 -.00000695  00000+0 -25598-4 0  9991,2 54798  53.2183 332.8830 0000872  88.3027 271.8065 15.08845143 34385,15.08845143,8.72e-05,LEO
54799,STARLINK-5421,2022,95.44,260.0,+,53.22,Active,1,LEO,USA,USA,Commercial,Communications,Falcon,1 54799U 22175AT  23213.43549166  .00000307  00000+0  37339-4 0  9998,2 54799  53.2181 329.4353 0000906 102.3042 257.8051 15.08836700 34500,15.088367,9.06e-05,LEO
54800,STARLINK-5428,2022,95.44,260.0,+,53.22,Active,1,LEO,USA,USA,Commercial,Communications,Falcon,1 54800U 22175AU  23212.69352064 -.00000107  00000+0  11377-4 0  9990,2 54800  53.2195 347.5428 0000948  89.1082 271.0019 15.08842824 34184,15.08842824,9.48e-05,LEO
